{"type": "FeatureCollection", "features": [ {"type": "Feature", "properties": {"norad_id": 66488, "name": "STARLINK-35515", "group": "last-30-days", "lat": 38.99106800069765, "lon": -118.25417398514315, "alt_km": 346.1609978156748, "timestamp": "2025-12-03T04:52:28.420538+00:00", "meta": {"OBJECT_NAME": "STARLINK-35515", "OBJECT_ID": "2025-263D", "EPOCH": "2025-12-02T20:00:03.000384", "MEAN_MOTION": 15.74219294, "ECCENTRICITY": 0.000138, "INCLINATION": 42.9983, "RA_OF_ASC_NODE": 183.6652, "ARG_OF_PERICENTER": 286.7785, "MEAN_ANOMALY": 203.7448, "EPHEMERIS_TYPE": 0, "CLASSIFICATION_TYPE": "U", "NORAD_CAT_ID": 66488, "ELEMENT_SET_NO": 999, "REV_AT_EPOCH": 404, "BSTAR": -0.015185, "MEAN_MOTION_DOT": -0.01989609, "MEAN_MOTION_DDOT": 0}, "tle": {"line1": "1 66488U 25263D   25336.83336806 -.01989609  00000+0 -15185-1 0  9990", "line2": "2 66488  42.9983 183.6652 0001380 286.7785 203.7448 15.74219294  4045"}}, "geometry": {"type": "Point", "coordinates": [-118.25417398514315, 38.99106800069765]}}, {"type": "Feature", "properties": {"norad_id": 66489, "name": "STARLINK-35696", "group": "last-30-days", "lat": 39.613818880013895, "lon": -115.92129634154573, "alt_km": 346.2773889725686, "timestamp": "2025-12-03T04:52:28.420548+00:00", "meta": {"OBJECT_NAME": "STARLINK-35696", "OBJECT_ID": "2025-263E", "EPOCH": "2025-12-02T20:00:03.000384", "MEAN_MOTION": 15.74216683, "ECCENTRICITY": 0.0001253, "INCLINATION": 42.9985, "RA_OF_ASC_NODE": 183.6603, "ARG_OF_PERICENTER": 264.4151, "MEAN_ANOMALY": 228.032, "EPHEMERIS_TYPE": 0, "CLASSIFICATION_TYPE": "U", "NORAD_CAT_ID": 66489, "ELEMENT_SET_NO": 999, "REV_AT_EPOCH": 404, "BSTAR": -0.015203, "MEAN_MOTION_DOT": -0.01991404, "MEAN_MOTION_DDOT": 0}, "tle": {"line1": "1 66489U 25263E   25336.83336806 -.01991404  00000+0 -15203-1 0  9998", "line2": "2 66489  42.9985 183.6603 0001253 264.4151 228.0320 15.74216683  4041"}}, "geometry": {"type": "Point", "coordinates": [-115.92129634154573, 39.613818880013895]}}, {"type": "Feature", "properties": {"norad_id": 66490, "name": "STARLINK-35693", "group": "last-30-days", "lat": 40.19189961220938, "lon": -113.53284772744493, "alt_km": 346.0216693750235, "timestamp": "2025-12-03T04:52:28.420560+00:00", "meta": {"OBJECT_NAME": "STARLINK-35693", "OBJECT_ID": "2025-263F", "EPOCH": "2025-12-02T20:00:03.000384", "MEAN_MOTION": 15.74220692, "ECCENTRICITY": 0.0001352, "INCLINATION": 42.9983, "RA_OF_ASC_NODE": 183.6554, "ARG_OF_PERICENTER": 286.0123, "MEAN_ANOMALY": 208.3444, "EPHEMERIS_TYPE": 0, "CLASSIFICATION_TYPE": "U", "NORAD_CAT_ID": 66490, "ELEMENT_SET_NO": 999, "REV_AT_EPOCH": 404, "BSTAR": -0.0152, "MEAN_MOTION_DOT": -0.01991398, "MEAN_MOTION_DDOT": 0}, "tle": {"line1": "1 66490U 25263F   25336.83336806 -.01991398  00000+0 -15200-1 0  9999", "line2": "2 66490  42.9983 183.6554 0001352 286.0123 208.3444 15.74220692  4048"}}, "geometry": {"type": "Point", "coordinates": [-113.53284772744493, 40.19189961220938]}}, {"type": "Feature", "properties": {"norad_id": 66491, "name": "STARLINK-35663", "group": "last-30-days", "lat": 41.19272290061297, "lon": -108.6620630761583, "alt_km": 346.0790604108306, "timestamp": "2025-12-03T04:52:28.420583+00:00", "meta": {"OBJECT_NAME": "STARLINK-35663", "OBJECT_ID": "2025-263G", "EPOCH": "2025-12-02T20:00:03.000384", "MEAN_MOTION": 15.74214662, "ECCENTRICITY": 0.0001354, "INCLINATION": 42.9986, "RA_OF_ASC_NODE": 183.6456, "ARG_OF_PERICENTER": 269.7906, "MEAN_ANOMALY": 228.4036, "EPHEMERIS_TYPE": 0, "CLASSIFICATION_TYPE": "U", "NORAD_CAT_ID": 66491, "ELEMENT_SET_NO": 999, "REV_AT_EPOCH": 404, "BSTAR": -0.015133, "MEAN_MOTION_DOT": -0.01983223, "MEAN_MOTION_DDOT": 0}, "tle": {"line1": "1 66491U 25263G   25336.83336806 -.01983223  00000+0 -15133-1 0  9993", "line2": "2 66491  42.9986 183.6456 0001354 269.7906 228.4036 15.74214662  4042"}}, "geometry": {"type": "Point", "coordinates": [-108.6620630761583, 41.19272290061297]}}, {"type": "Feature", "properties": {"norad_id": 66492, "name": "STARLINK-35673", "group": "last-30-days", "lat": 41.615716731231394, "lon": -106.16380036571705, "alt_km": 345.91604063899376, "timestamp": "2025-12-03T04:52:28.420594+00:00", "meta": {"OBJECT_NAME": "STARLINK-35673", "OBJECT_ID": "2025-263H", "EPOCH": "2025-12-02T20:00:03.000384", "MEAN_MOTION": 15.74216491, "ECCENTRICITY": 0.0001384, "INCLINATION": 42.9984, "RA_OF_ASC_NODE": 183.6409, "ARG_OF_PERICENTER": 284.0297, "MEAN_ANOMALY": 216.0818, "EPHEMERIS_TYPE": 0, "CLASSIFICATION_TYPE": "U", "NORAD_CAT_ID": 66492, "ELEMENT_SET_NO": 999, "REV_AT_EPOCH": 404, "BSTAR": -0.015171, "MEAN_MOTION_DOT": -0.01987727, "MEAN_MOTION_DDOT": 0}, "tle": {"line1": "1 66492U 25263H   25336.83336806 -.01987727  00000+0 -15171-1 0  9999", "line2": "2 66492  42.9984 183.6409 0001384 284.0297 216.0818 15.74216491  4048"}}, "geometry": {"type": "Point", "coordinates": [-106.16380036571705, 41.615716731231394]}}, {"type": "Feature", "properties": {"norad_id": 66493, "name": "STARLINK-35597", "group": "last-30-days", "lat": 41.98241063920979, "lon": -103.64813013025592, "alt_km": 345.9384643805779, "timestamp": "2025-12-03T04:52:28.420604+00:00", "meta": {"OBJECT_NAME": "STARLINK-35597", "OBJECT_ID": "2025-263J", "EPOCH": "2025-12-02T20:00:03.000384", "MEAN_MOTION": 15.74218089, "ECCENTRICITY": 0.0001272, "INCLINATION": 42.9986, "RA_OF_ASC_NODE": 183.6356, "ARG_OF_PERICENTER": 269.3475, "MEAN_ANOMALY": 232.6826, "EPHEMERIS_TYPE": 0, "CLASSIFICATION_TYPE": "U", "NORAD_CAT_ID": 66493, "ELEMENT_SET_NO": 999, "REV_AT_EPOCH": 404, "BSTAR": -0.015204, "MEAN_MOTION_DOT": -0.01991621, "MEAN_MOTION_DDOT": 0}, "tle": {"line1": "1 66493U 25263J   25336.83336806 -.01991621  00000+0 -15204-1 0  9995", "line2": "2 66493  42.9986 183.6356 0001272 269.3475 232.6826 15.74218089  4040"}}, "geometry": {"type": "Point", "coordinates": [-103.64813013025592, 41.98241063920979]}}, {"type": "Feature", "properties": {"norad_id": 66494, "name": "STARLINK-35689", "group": "last-30-days", "lat": 40.719490970093155, "lon": -111.10839700291847, "alt_km": 346.09230659176046, "timestamp": "2025-12-03T04:52:28.420616+00:00", "meta": {"OBJECT_NAME": "STARLINK-35689", "OBJECT_ID": "2025-263K", "EPOCH": "2025-12-02T20:00:03.000384", "MEAN_MOTION": 15.74226583, "ECCENTRICITY": 0.0001405, "INCLINATION": 42.9985, "RA_OF_ASC_NODE": 183.6509, "ARG_OF_PERICENTER": 281.2567, "MEAN_ANOMALY": 215.0244, "EPHEMERIS_TYPE": 0, "CLASSIFICATION_TYPE": "U", "NORAD_CAT_ID": 66494, "ELEMENT_SET_NO": 999, "REV_AT_EPOCH": 404, "BSTAR": -0.015357, "MEAN_MOTION_DOT": -0.02010015, "MEAN_MOTION_DDOT": 0}, "tle": {"line1": "1 66494U 25263K   25336.83336806 -.02010015  00000+0 -15357-1 0  9995", "line2": "2 66494  42.9985 183.6509 0001405 281.2567 215.0244 15.74226583  4040"}}, "geometry": {"type": "Point", "coordinates": [-111.10839700291847, 40.719490970093155]}}, {"type": "Feature", "properties": {"norad_id": 66495, "name": "STARLINK-35832", "group": "last-30-days", "lat": 42.2944841480716, "lon": -101.0907024914832, "alt_km": 345.85285105617277, "timestamp": "2025-12-03T04:52:28.420626+00:00", "meta": {"OBJECT_NAME": "STARLINK-35832", "OBJECT_ID": "2025-263L", "EPOCH": "2025-12-02T20:00:03.000384", "MEAN_MOTION": 15.74224569, "ECCENTRICITY": 0.0001246, "INCLINATION": 42.9984, "RA_OF_ASC_NODE": 183.6312, "ARG_OF_PERICENTER": 276.3526, "MEAN_ANOMALY": 227.5965, "EPHEMERIS_TYPE": 0, "CLASSIFICATION_TYPE": "U", "NORAD_CAT_ID": 66495, "ELEMENT_SET_NO": 999, "REV_AT_EPOCH": 404, "BSTAR": -0.015303, "MEAN_MOTION_DOT": -0.02003573, "MEAN_MOTION_DDOT": 0}, "tle": {"line1": "1 66495U 25263L   25336.83336806 -.02003573  00000+0 -15303-1 0  9998", "line2": "2 66495  42.9984 183.6312 0001246 276.3526 227.5965 15.74224569  4045"}}, "geometry": {"type": "Point", "coordinates": [-101.0907024914832, 42.2944841480716]}}, {"type": "Feature", "properties": {"norad_id": 66496, "name": "STARLINK-35909", "group": "last-30-days", "lat": 42.54859643782103, "lon": -98.51762718763446, "alt_km": 345.7890103741738, "timestamp": "2025-12-03T04:52:28.420636+00:00", "meta": {"OBJECT_NAME": "STARLINK-35909", "OBJECT_ID": "2025-263M", "EPOCH": "2025-12-02T20:00:03.000384", "MEAN_MOTION": 15.74226748, "ECCENTRICITY": 0.0001298, "INCLINATION": 42.9984, "RA_OF_ASC_NODE": 183.6263, "ARG_OF_PERICENTER": 284.8574, "MEAN_ANOMALY": 221.0055, "EPHEMERIS_TYPE": 0, "CLASSIFICATION_TYPE": "U", "NORAD_CAT_ID": 66496, "ELEMENT_SET_NO": 999, "REV_AT_EPOCH": 404, "BSTAR": -0.015332, "MEAN_MOTION_DOT": -0.02007061, "MEAN_MOTION_DDOT": 0}, "tle": {"line1": "1 66496U 25263M   25336.83336806 -.02007061  00000+0 -15332-1 0  9997", "line2": "2 66496  42.9984 183.6263 0001298 284.8574 221.0055 15.74226748  4045"}}, "geometry": {"type": "Point", "coordinates": [-98.51762718763446, 42.54859643782103]}}, {"type": "Feature", "properties": {"norad_id": 66497, "name": "STARLINK-35899", "group": "last-30-days", "lat": 42.74436823847543, "lon": -95.92808848266873, "alt_km": 345.73079696983405, "timestamp": "2025-12-03T04:52:28.420646+00:00", "meta": {"OBJECT_NAME": "STARLINK-35899", "OBJECT_ID": "2025-263N", "EPOCH": "2025-12-02T20:00:03.000384", "MEAN_MOTION": 15.74222594, "ECCENTRICITY": 0.0001264, "INCLINATION": 42.9984, "RA_OF_ASC_NODE": 183.6211, "ARG_OF_PERICENTER": 285.822, "MEAN_ANOMALY": 221.957, "EPHEMERIS_TYPE": 0, "CLASSIFICATION_TYPE": "U", "NORAD_CAT_ID": 66497, "ELEMENT_SET_NO": 999, "REV_AT_EPOCH": 404, "BSTAR": -0.015254, "MEAN_MOTION_DOT": -0.01997702, "MEAN_MOTION_DDOT": 0}, "tle": {"line1": "1 66497U 25263N   25336.83336806 -.01997702  00000+0 -15254-1 0  9990", "line2": "2 66497  42.9984 183.6211 0001264 285.8220 221.9570 15.74222594  4047"}}, "geometry": {"type": "Point", "coordinates": [-95.92808848266873, 42.74436823847543]}}]}